{
  "type": "FeatureCollection",
  "features": [
    {
      "type": "Feature",
      "properties": {
        "norad_id": 66470,
        "name": "STARLINK-35655",
        "group": "last-30-days",
        "lat": 38.18170525384888,
        "lon": 179.6712904055244,
        "alt_km": 438.5239275506692,
        "timestamp": "2025-12-15T04:01:19.178608+00:00",
        "meta_object_name": "STARLINK-35655",
        "meta_object_id": "2025-262Q",
        "meta_epoch": "2025-12-14T06:00:02.999808",
        "meta_mean_motion": 15.40657648,
        "meta_eccentricity": 0.00013935,
        "meta_inclination": 43.0003,
        "meta_ra_of_asc_node": 62.5151,
        "meta_arg_of_pericenter": 259.6907,
        "meta_mean_anomaly": 159.9029,
        "meta_ephemeris_type": 0,
        "meta_classification_type": "U",
        "meta_norad_cat_id": 66470,
        "meta_element_set_no": 999,
        "meta_rev_at_epoch": 588,
        "meta_bstar": 0.0016964459,
        "meta_mean_motion_dot": 0.00071124,
        "meta_mean_motion_ddot": 0,
        "tle_line1": "1 66470U 25262Q   25348.25003472  .00071124  00000+0  16964-2 0  9997",
        "tle_line2": "2 66470  43.0003  62.5151 0001393 259.6907 159.9029 15.40657648  5881"
      },
      "geometry": {
        "type": "Point",
        "coordinates": [
          179.6712904055244,
          38.18170525384888
        ]
      }
    },
    {
      "type": "Feature",
      "properties": {
        "norad_id": 66471,
        "name": "STARLINK-35569",
        "group": "last-30-days",
        "lat": 32.80185239227186,
        "lon": -166.564358923344,
        "alt_km": 439.1927608215692,
        "timestamp": "2025-12-15T04:01:19.178620+00:00",
        "meta_object_name": "STARLINK-35569",
        "meta_object_id": "2025-262R",
        "meta_epoch": "2025-12-14T06:00:02.999808",
        "meta_mean_motion": 15.40650383,
        "meta_eccentricity": 0.00012447,
        "meta_inclination": 43.0001,
        "meta_ra_of_asc_node": 62.4839,
        "meta_arg_of_pericenter": 259.7799,
        "meta_mean_anomaly": 172.2509,
        "meta_ephemeris_type": 0,
        "meta_classification_type": "U",
        "meta_norad_cat_id": 66471,
        "meta_element_set_no": 999,
        "meta_rev_at_epoch": 588,
        "meta_bstar": 0.0017732277,
        "meta_mean_motion_dot": 0.00074371,
        "meta_mean_motion_ddot": 0,
        "tle_line1": "1 66471U 25262R   25348.25003472  .00074371  00000+0  17732-2 0  9999",
        "tle_line2": "2 66471  43.0001  62.4839 0001244 259.7799 172.2509 15.40650383  5887"
      },
      "geometry": {
        "type": "Point",
        "coordinates": [
          -166.564358923344,
          32.80185239227186
        ]
      }
    },
    {
      "type": "Feature",
      "properties": {
        "norad_id": 66472,
        "name": "STARLINK-35567",
        "group": "last-30-days",
        "lat": 18.357034492554995,
        "lon": -143.72584107175473,
        "alt_km": 441.03453800125044,
        "timestamp": "2025-12-15T04:01:19.178630+00:00",
        "meta_object_name": "STARLINK-35567",
        "meta_object_id": "2025-262S",
        "meta_epoch": "2025-12-14T06:00:02.999808",
        "meta_mean_motion": 15.40683498,
        "meta_eccentricity": 8.309e-05,
        "meta_inclination": 43.0004,
        "meta_ra_of_asc_node": 62.4233,
        "meta_arg_of_pericenter": 275.0014,
        "meta_mean_anomaly": 181.9456,
        "meta_ephemeris_type": 0,
        "meta_classification_type": "U",
        "meta_norad_cat_id": 66472,
        "meta_element_set_no": 999,
        "meta_rev_at_epoch": 588,
        "meta_bstar": 0.0022038265,
        "meta_mean_motion_dot": 0.00092831,
        "meta_mean_motion_ddot": 0,
        "tle_line1": "1 66472U 25262S   25348.25003472  .00092831  00000+0  22038-2 0  9996",
        "tle_line2": "2 66472  43.0004  62.4233 0000830 275.0014 181.9456 15.40683498  5881"
      },
      "geometry": {
        "type": "Point",
        "coordinates": [
          -143.72584107175473,
          18.357034492554995
        ]
      }
    },
    {
      "type": "Feature",
      "properties": {
        "norad_id": 66473,
        "name": "STARLINK-35568",
        "group": "last-30-days",
        "lat": -41.96015034658905,
        "lon": -17.964948487336727,
        "alt_km": 410.32097586765303,
        "timestamp": "2025-12-15T04:01:19.178644+00:00",
        "meta_object_name": "STARLINK-35568",
        "meta_object_id": "2025-262T",
        "meta_epoch": "2025-12-11T07:39:08.069760",
        "meta_mean_motion": 15.50526439,
        "meta_eccentricity": 0.00047596,
        "meta_inclination": 42.9998,
        "meta_ra_of_asc_node": 79.3576,
        "meta_arg_of_pericenter": 252.6139,
        "meta_mean_anomaly": 107.4201,
        "meta_ephemeris_type": 0,
        "meta_classification_type": "U",
        "meta_norad_cat_id": 66473,
        "meta_element_set_no": 999,
        "meta_rev_at_epoch": 534,
        "meta_bstar": 0.0038259112,
        "meta_mean_motion_dot": 0.00230458,
        "meta_mean_motion_ddot": 0,
        "tle_line1": "1 66473U 25262T   25345.31884340  .00230458  00000+0  38259-2 0  9993",
        "tle_line2": "2 66473  42.9998  79.3576 0004759 252.6139 107.4201 15.50526439  5346"
      },
      "geometry": {
        "type": "Point",
        "coordinates": [
          -17.964948487336727,
          -41.96015034658905
        ]
      }
    },
    {
      "type": "Feature",
      "properties": {
        "norad_id": 66474,
        "name": "STARLINK-35620",
        "group": "last-30-days",
        "lat": -41.63915286666976,
        "lon": -15.755893306304012,
        "alt_km": 413.2272983961948,
        "timestamp": "2025-12-15T04:01:19.178655+00:00",
        "meta_object_name": "STARLINK-35620",
        "meta_object_id": "2025-262U",
        "meta_epoch": "2025-12-12T13:00:34.651008",
        "meta_mean_motion": 15.51135131,
        "meta_eccentricity": 0.00014651,
        "meta_inclination": 43.0009,
        "meta_ra_of_asc_node": 72.1929,
        "meta_arg_of_pericenter": 279.0822,
        "meta_mean_anomaly": 80.9873,
        "meta_ephemeris_type": 0,
        "meta_classification_type": "U",
        "meta_norad_cat_id": 66474,
        "meta_element_set_no": 999,
        "meta_rev_at_epoch": 553,
        "meta_bstar": 0.0027986206,
        "meta_mean_motion_dot": 0.00170828,
        "meta_mean_motion_ddot": 0,
        "tle_line1": "1 66474U 25262U   25346.54206772  .00170828  00000+0  27986-2 0  9996",
        "tle_line2": "2 66474  43.0009  72.1929 0001465 279.0822  80.9873 15.51135131  5535"
      },
      "geometry": {
        "type": "Point",
        "coordinates": [
          -15.755893306304012,
          -41.63915286666976
        ]
      }
    },
    {
      "type": "Feature",
      "properties": {
        "norad_id": 66475,
        "name": "STARLINK-35538",
        "group": "last-30-days",
        "lat": -6.587446337739679,
        "lon": -115.83757762843807,
        "alt_km": 444.516877211413,
        "timestamp": "2025-12-15T04:01:19.178666+00:00",
        "meta_object_name": "STARLINK-35538",
        "meta_object_id": "2025-262V",
        "meta_epoch": "2025-12-14T06:00:02.999808",
        "meta_mean_motion": 15.4067162,
        "meta_eccentricity": 8.051e-05,
        "meta_inclination": 43.0008,
        "meta_ra_of_asc_node": 62.3326,
        "meta_arg_of_pericenter": 280.5225,
        "meta_mean_anomaly": 213.7869,
        "meta_ephemeris_type": 0,
        "meta_classification_type": "U",
        "meta_norad_cat_id": 66475,
        "meta_element_set_no": 999,
        "meta_rev_at_epoch": 588,
        "meta_bstar": 0.0011635293,
        "meta_mean_motion_dot": 0.00048563,
        "meta_mean_motion_ddot": 0,
        "tle_line1": "1 66475U 25262V   25348.25003472  .00048563  00000+0  11635-2 0  9993",
        "tle_line2": "2 66475  43.0008  62.3326 0000805 280.5225 213.7869 15.40671620  5883"
      },
      "geometry": {
        "type": "Point",
        "coordinates": [
          -115.83757762843807,
          -6.587446337739679
        ]
      }
    },
    {
      "type": "Feature",
      "properties": {
        "norad_id": 66476,
        "name": "STARLINK-35372",
        "group": "last-30-days",
        "lat": -14.830536376616536,
        "lon": -106.47944416048077,
        "alt_km": 444.68811835374436,
        "timestamp": "2025-12-15T04:01:19.178677+00:00",
        "meta_object_name": "STARLINK-35372",
        "meta_object_id": "2025-262W",
        "meta_epoch": "2025-12-14T06:00:02.999808",
        "meta_mean_motion": 15.40620427,
        "meta_eccentricity": 0.0001322,
        "meta_inclination": 43.0006,
        "meta_ra_of_asc_node": 62.3018,
        "meta_arg_of_pericenter": 241.55,
        "meta_mean_anomaly": 265.1933,
        "meta_ephemeris_type": 0,
        "meta_classification_type": "U",
        "meta_norad_cat_id": 66476,
        "meta_element_set_no": 999,
        "meta_rev_at_epoch": 577,
        "meta_bstar": 0.0019994679,
        "meta_mean_motion_dot": 0.0008392,
        "meta_mean_motion_ddot": 0,
        "tle_line1": "1 66476U 25262W   25348.25003472  .00083920  00000+0  19995-2 0  9997",
        "tle_line2": "2 66476  43.0006  62.3018 0001322 241.5500 265.1933 15.40620427  5778"
      },
      "geometry": {
        "type": "Point",
        "coordinates": [
          -106.47944416048077,
          -14.830536376616536
        ]
      }
    }
  ]
}